{"type":"FeatureCollection","features":[{"type":"Feature","geometry":{"type":"LineString","coordinates":[[-118.177921906,34.235571198],[-118.177590705,34.235342197],[-118.1775904,34.235067494],[-118.177700803,34.2349758],[-118.178638302,34.2347463],[-118.178803504,34.234471396],[-118.178858407,34.234127693],[-118.1787479,34.233921595],[-118.1784169,34.2337844],[-118.177865304,34.233692996],[-118.177782401,34.233464099],[-118.177947603,34.233028799],[-118.177974902,34.232662298],[-118.177892007,34.2324562],[-118.177423105,34.232181698],[-118.176761106,34.232181996],[-118.176568002,34.232090399],[-118.176622905,34.231700994],[-118.177560002,34.230944693],[-118.177449606,34.230669893],[-118.176732406,34.230303794],[-118.176208004,34.229868896],[-118.176207803,34.229387894],[-118.176373102,34.229204595],[-118.177007206,34.228929594],[-118.177282803,34.228723295],[-118.177282602,34.2285171],[-118.176482506,34.227945],[-118.176454805,34.227715895],[-118.1766477,34.2275097],[-118.177171603,34.2274637],[-118.178468004,34.228035599],[-118.179047205,34.228149794],[-118.179543406,34.228149593],[-118.179791607,34.228034899],[-118.180094704,34.227714099],[-118.180121906,34.227118596],[-118.179762207,34.225652896],[-118.179348201,34.224966094],[-118.179237604,34.224599697],[-118.179320201,34.224416398],[-118.179485604,34.2243248],[-118.180174902,34.224186994],[-118.180533104,34.223980598],[-118.180505402,34.223705895],[-118.179732904,34.223248199],[-118.178436607,34.2226533],[-118.177471004,34.221920796],[-118.177139707,34.221279696],[-118.177222304,34.221073493],[-118.177497901,34.220890097],[-118.178076901,34.220866896],[-118.178821303,34.220751993],[-118.179041706,34.220568694],[-118.179069206,34.220339693],[-118.1784897,34.219813094],[-118.176972806,34.219012298],[-118.176117405,34.2181881],[-118.175868906,34.217546895],[-118.176006205,34.216676496],[-118.175978206,34.216012396],[-118.175564401,34.215783499],[-118.174406402,34.215600699],[-118.174157701,34.214822195],[-118.174102202,34.214180999]]},"properties":{"nhdplus_comid":22514774},"id":22514774},{"type":"Feature","geometry":{"type":"LineString","coordinates":[[-118.183941104,34.245233394],[-118.183941007,34.245050199],[-118.182560906,34.243607998],[-118.182505503,34.243287399],[-118.1825881,34.243126996],[-118.182863802,34.242966495],[-118.183856502,34.242782794],[-118.184077002,34.242599398],[-118.184103906,34.241728999],[-118.184296504,34.241202094],[-118.184296302,34.240881495],[-118.183937706,34.240858793],[-118.182696804,34.241019793],[-118.182338305,34.2409283],[-118.181869105,34.240630798],[-118.181675702,34.240218699],[-118.181536302,34.238134496],[-118.181121506,34.236554496],[-118.180652305,34.236004993],[-118.1802385,34.235867798],[-118.179935202,34.235913694],[-118.179356404,34.236394994],[-118.178942904,34.236509696],[-118.178666703,34.236028895],[-118.1781701,34.2356169],[-118.177921906,34.235571198]]},"properties":{"nhdplus_comid":22514712},"id":22514712}]}